[{"OBJECT_NAME":"STARLINK-3624","OBJECT_ID":"2022-017F","EPOCH":"2026-03-09T22:31:07.696128","MEAN_MOTION":15.08850831,"ECCENTRICITY":0.00016374,"INCLINATION":53.2195,"RA_OF_ASC_NODE":337.9769,"ARG_OF_PERICENTER":88.374,"MEAN_ANOMALY":271.7439,"EPHEMERIS_TYPE":0,"CLASSIFICATION_TYPE":"U","NORAD_CAT_ID":51773,"ELEMENT_SET_NO":999,"REV_AT_EPOCH":22264,"BSTAR":0.00017530862,"MEAN_MOTION_DOT":2.504e-5,"MEAN_MOTION_DDOT":0},{"OBJECT_NAME":"FALCON 9 DEB","OBJECT_ID":"2021-041BJ","EPOCH":"2026-03-09T14:15:46.870272","MEAN_MOTION":15.11971801,"ECCENTRICITY":0.0009424,"INCLINATION":53.0285,"RA_OF_ASC_NODE":180.5194,"ARG_OF_PERICENTER":169.4294,"MEAN_ANOMALY":190.6897,"EPHEMERIS_TYPE":0,"CLASSIFICATION_TYPE":"U","NORAD_CAT_ID":48609,"ELEMENT_SET_NO":999,"REV_AT_EPOCH":26442,"BSTAR":0.00034424,"MEAN_MOTION_DOT":5.684e-5,"MEAN_MOTION_DDOT":0}]
